[{"OBJECT_NAME":"ONEWEB-0120","OBJECT_ID":"2020-100J","EPOCH":"2026-04-05T04:39:00.950400","MEAN_MOTION":13.12445405,"ECCENTRICITY":0.0001777,"INCLINATION":87.9008,"RA_OF_ASC_NODE":5.1709,"ARG_OF_PERICENTER":75.6681,"MEAN_ANOMALY":284.4644,"EPHEMERIS_TYPE":0,"CLASSIFICATION_TYPE":"U","NORAD_CAT_ID":47266,"ELEMENT_SET_NO":999,"REV_AT_EPOCH":25515,"BSTAR":0.0012243,"MEAN_MOTION_DOT":4.53e-06,"MEAN_MOTION_DDOT":0.0},{"OBJECT_NAME":"ONEWEB-0121","OBJECT_ID":"2020-100K","EPOCH":"2026-04-05T06:11:30.765408","MEAN_MOTION":13.12446537,"ECCENTRICITY":0.0001919,"INCLINATION":87.9017,"RA_OF_ASC_NODE":5.1372,"ARG_OF_PERICENTER":83.2041,"MEAN_ANOMALY":276.9305,"EPHEMERIS_TYPE":0,"CLASSIFICATION_TYPE":"U","NORAD_CAT_ID":47267,"ELEMENT_SET_NO":999,"REV_AT_EPOCH":25507,"BSTAR":0.00048974,"MEAN_MOTION_DOT":1.89e-06,"MEAN_MOTION_DDOT":0.0},{"OBJECT_NAME":"ONEWEB-0122","OBJECT_ID":"2020-100L","EPOCH":"2026-04-05T04:13:12.213120","MEAN_MOTION":13.12445576,"ECCENTRICITY":0.0001931,"INCLINATION":87.902,"RA_OF_ASC_NODE":5.1564,"ARG_OF_PERICENTER":75.847,"MEAN_ANOMALY":284.2873,"EPHEMERIS_TYPE":0,"CLASSIFICATION_TYPE":"U","NORAD_CAT_ID":47268,"ELEMENT_SET_NO":999,"REV_AT_EPOCH":25497,"BSTAR":-2.1909000000000003e-05,"MEAN_MOTION_DOT":5e-08,"MEAN_MOTION_DDOT":0.0},{"OBJECT_NAME":"ONEWEB-0123","OBJECT_ID":"2020-100M","EPOCH":"2026-04-05T04:07:05.434752","MEAN_MOTION":13.12444582,"ECCENTRICITY":0.0001683,"INCLINATION":87.9008,"RA_OF_ASC_NODE":5.1735,"ARG_OF_PERICENTER":78.1133,"MEAN_ANOMALY":282.0184,"EPHEMERIS_TYPE":0,"CLASSIFICATION_TYPE":"U","NORAD_CAT_ID":47269,"ELEMENT_SET_NO":999,"REV_AT_EPOCH":25511,"BSTAR":-0.0011308,"MEAN_MOTION_DOT":-3.94e-06,"MEAN_MOTION_DDOT":0.0},{"OBJECT_NAME":"ONEWEB-0124","OBJECT_ID":"2020-100N","EPOCH":"2026-04-05T05:42:14.259456","MEAN_MOTION":13.12443194,"ECCENTRICITY":0.0001755,"INCLINATION":87.9005,"RA_OF_ASC_NODE":5.1644,"ARG_OF_PERICENTER":83.0248,"MEAN_ANOMALY":277.108,"EPHEMERIS_TYPE":0,"CLASSIFICATION_TYPE":"U","NORAD_CAT_ID":47270,"ELEMENT_SET_NO":999,"REV_AT_EPOCH":25500,"BSTAR":-0.0015109000000000001,"MEAN_MOTION_DOT":-5.31e-06,"MEAN_MOTION_DDOT":0.0},{"OBJECT_NAME":"ONEWEB-0125","OBJECT_ID":"2020-100P","EPOCH":"2026-04-05T07:00:19.452384","MEAN_MOTION":13.12442364,"ECCENTRICITY":0.0001534,"INCLINATION":87.9016,"RA_OF_ASC_NODE":5.1287,"ARG_OF_PERICENTER":86.6441,"MEAN_ANOMALY":273.4863,"EPHEMERIS_TYPE":0,"CLASSIFICATION_TYPE":"U","NORAD_CAT_ID":47271,"ELEMENT_SET_NO":999,"REV_AT_EPOCH":25507,"BSTAR":0.00039294000000000004,"MEAN_MOTION_DOT":1.54e-06,"MEAN_MOTION_DDOT":0.0},{"OBJECT_NAME":"ONEWEB-0126","OBJECT_ID":"2020-100Q","EPOCH":"2026-04-05T05:39:59.917824","MEAN_MOTION":13.12442908,"ECCENTRICITY":0.0001788,"INCLINATION":87.9013,"RA_OF_ASC_NODE":5.1601,"ARG_OF_PERICENTER":73.9173,"MEAN_ANOMALY":286.2152,"EPHEMERIS_TYPE":0,"CLASSIFICATION_TYPE":"U","NORAD_CAT_ID":47272,"ELEMENT_SET_NO":999,"REV_AT_EPOCH":25513,"BSTAR":-0.0014996999999999999,"MEAN_MOTION_DOT":-5.27e-06,"MEAN_MOTION_DDOT":0.0},{"OBJECT_NAME":"ONEWEB-0127","OBJECT_ID":"2020-100R","EPOCH":"2026-04-05T06:40:49.131552","MEAN_MOTION":13.12443712,"ECCENTRICITY":0.0001841,"INCLINATION":87.9005,"RA_OF_ASC_NODE":5.1544,"ARG_OF_PERICENTER":73.6005,"MEAN_ANOMALY":286.5326,"EPHEMERIS_TYPE":0,"CLASSIFICATION_TYPE":"U","NORAD_CAT_ID":47273,"ELEMENT_SET_NO":999,"REV_AT_EPOCH":25516,"BSTAR":0.0013363000000000001,"MEAN_MOTION_DOT":4.93e-06,"MEAN_MOTION_DDOT":0.0},{"OBJECT_NAME":"ONEWEB-0128","OBJECT_ID":"2020-100S","EPOCH":"2026-04-05T05:22:43.652640","MEAN_MOTION":13.12440975,"ECCENTRICITY":0.0002062,"INCLINATION":87.9006,"RA_OF_ASC_NODE":5.1791,"ARG_OF_PERICENTER":83.6031,"MEAN_ANOMALY":276.5332,"EPHEMERIS_TYPE":0,"CLASSIFICATION_TYPE":"U","NORAD_CAT_ID":47274,"ELEMENT_SET_NO":999,"REV_AT_EPOCH":25517,"BSTAR":-0.00042175000000000003,"MEAN_MOTION_DOT":-1.39e-06,"MEAN_MOTION_DDOT":0.0},{"OBJECT_NAME":"ONEWEB-0129","OBJECT_ID":"2020-100T","EPOCH":"2026-04-05T06:43:14.630880","MEAN_MOTION":13.12444417,"ECCENTRICITY":0.0002296,"INCLINATION":87.9016,"RA_OF_ASC_NODE":5.1342,"ARG_OF_PERICENTER":48.6378,"MEAN_ANOMALY":311.4947,"EPHEMERIS_TYPE":0,"CLASSIFICATION_TYPE":"U","NORAD_CAT_ID":47275,"ELEMENT_SET_NO":999,"REV_AT_EPOCH":25511,"BSTAR":0.0010639,"MEAN_MOTION_DOT":3.95e-06,"MEAN_MOTION_DDOT":0.0},{"OBJECT_NAME":"ONEWEB-0130","OBJECT_ID":"2020-100U","EPOCH":"2026-04-05T05:32:28.985856","MEAN_MOTION":13.12441244,"ECCENTRICITY":0.0001885,"INCLINATION":87.9017,"RA_OF_ASC_NODE":5.1384,"ARG_OF_PERICENTER":76.5929,"MEAN_ANOMALY":283.541,"EPHEMERIS_TYPE":0,"CLASSIFICATION_TYPE":"U","NORAD_CAT_ID":47276,"ELEMENT_SET_NO":999,"REV_AT_EPOCH":25507,"BSTAR":-0.0010278,"MEAN_MOTION_DOT":-3.57e-06,"MEAN_MOTION_DDOT":0.0},{"OBJECT_NAME":"ONEWEB-0131","OBJECT_ID":"2020-100V","EPOCH":"2026-04-05T05:27:36.360288","MEAN_MOTION":13.1244082,"ECCENTRICITY":0.0001835,"INCLINATION":87.9006,"RA_OF_ASC_NODE":5.1651,"ARG_OF_PERICENTER":77.8555,"MEAN_ANOMALY":282.2779,"EPHEMERIS_TYPE":0,"CLASSIFICATION_TYPE":"U","NORAD_CAT_ID":47277,"ELEMENT_SET_NO":999,"REV_AT_EPOCH":25511,"BSTAR":-0.00070663,"MEAN_MOTION_DOT":-2.41e-06,"MEAN_MOTION_DDOT":0.0},{"OBJECT_NAME":"ONEWEB-0132","OBJECT_ID":"2020-100W","EPOCH":"2026-04-05T06:09:05.036256","MEAN_MOTION":13.12445839,"ECCENTRICITY":0.0001829,"INCLINATION":87.9008,"RA_OF_ASC_NODE":5.1593,"ARG_OF_PERICENTER":80.5487,"MEAN_ANOMALY":279.5848,"EPHEMERIS_TYPE":0,"CLASSIFICATION_TYPE":"U","NORAD_CAT_ID":47278,"ELEMENT_SET_NO":999,"REV_AT_EPOCH":25501,"BSTAR":0.00020724,"MEAN_MOTION_DOT":8.7e-07,"MEAN_MOTION_DDOT":0.0},{"OBJECT_NAME":"ONEWEB-0133","OBJECT_ID":"2020-100X","EPOCH":"2026-04-05T06:33:17.530848","MEAN_MOTION":13.12444859,"ECCENTRICITY":0.0001894,"INCLINATION":87.9021,"RA_OF_ASC_NODE":5.1236,"ARG_OF_PERICENTER":82.0854,"MEAN_ANOMALY":278.049,"EPHEMERIS_TYPE":0,"CLASSIFICATION_TYPE":"U","NORAD_CAT_ID":47279,"ELEMENT_SET_NO":999,"REV_AT_EPOCH":25517,"BSTAR":0.0013582,"MEAN_MOTION_DOT":5.01e-06,"MEAN_MOTION_DDOT":0.0},{"OBJECT_NAME":"ONEWEB-0134","OBJECT_ID":"2020-100Y","EPOCH":"2026-04-05T03:59:46.401792","MEAN_MOTION":13.12442477,"ECCENTRICITY":0.0002065,"INCLINATION":87.902,"RA_OF_ASC_NODE":5.1419,"ARG_OF_PERICENTER":76.2645,"MEAN_ANOMALY":283.8713,"EPHEMERIS_TYPE":0,"CLASSIFICATION_TYPE":"U","NORAD_CAT_ID":47280,"ELEMENT_SET_NO":999,"REV_AT_EPOCH":25513,"BSTAR":-0.0010125000000000002,"MEAN_MOTION_DOT":-3.52e-06,"MEAN_MOTION_DDOT":0.0},{"OBJECT_NAME":"ONEWEB-0135","OBJECT_ID":"2020-100Z","EPOCH":"2026-04-05T06:57:52.746912","MEAN_MOTION":13.12441397,"ECCENTRICITY":0.000213,"INCLINATION":87.9005,"RA_OF_ASC_NODE":5.1499,"ARG_OF_PERICENTER":78.4325,"MEAN_ANOMALY":281.7043,"EPHEMERIS_TYPE":0,"CLASSIFICATION_TYPE":"U","NORAD_CAT_ID":47281,"ELEMENT_SET_NO":999,"REV_AT_EPOCH":25517,"BSTAR":0.00061756,"MEAN_MOTION_DOT":2.35e-06,"MEAN_MOTION_DDOT":0.0}]