ONEWEB-0120             
1 47266U 20100J   26095.19376100  .00000453  00000+0  12243-2 0  9992
2 47266  87.9008   5.1709 0001777  75.6681 284.4644 13.12445405255155
ONEWEB-0121             
1 47267U 20100K   26095.25799497  .00000189  00000+0  48974-3 0  9995
2 47267  87.9017   5.1372 0001919  83.2041 276.9305 13.12446537255073
ONEWEB-0122             
1 47268U 20100L   26095.17583580  .00000005  00000+0 -21909-4 0  9999
2 47268  87.9020   5.1564 0001931  75.8470 284.2873 13.12445576254970
ONEWEB-0123             
1 47269U 20100M   26095.17159068 -.00000394  00000+0 -11308-2 0  9992
2 47269  87.9008   5.1735 0001683  78.1133 282.0184 13.12444582255117
ONEWEB-0124             
1 47270U 20100N   26095.23766504 -.00000531  00000+0 -15109-2 0  9996
2 47270  87.9005   5.1644 0001755  83.0248 277.1080 13.12443194255003
ONEWEB-0125             
1 47271U 20100P   26095.29189181  .00000154  00000+0  39294-3 0  9994
2 47271  87.9016   5.1287 0001534  86.6441 273.4863 13.12442364255071
ONEWEB-0126             
1 47272U 20100Q   26095.23611016 -.00000527  00000+0 -14997-2 0  9994
2 47272  87.9013   5.1601 0001788  73.9173 286.2152 13.12442908255135
ONEWEB-0127             
1 47273U 20100R   26095.27834643  .00000493  00000+0  13363-2 0  9998
2 47273  87.9005   5.1544 0001841  73.6005 286.5326 13.12443712255167
ONEWEB-0128             
1 47274U 20100S   26095.22411635 -.00000139  00000+0 -42175-3 0  9999
2 47274  87.9006   5.1791 0002062  83.6031 276.5332 13.12440975255174
ONEWEB-0129             
1 47275U 20100T   26095.28003045  .00000395  00000+0  10639-2 0  9999
2 47275  87.9016   5.1342 0002296  48.6378 311.4947 13.12444417255112
ONEWEB-0130             
1 47276U 20100U   26095.23089104 -.00000357  00000+0 -10278-2 0  9994
2 47276  87.9017   5.1384 0001885  76.5929 283.5410 13.12441244255079
ONEWEB-0131             
1 47277U 20100V   26095.22750417 -.00000241  00000+0 -70663-3 0  9993
2 47277  87.9006   5.1651 0001835  77.8555 282.2779 13.12440820255117
ONEWEB-0132             
1 47278U 20100W   26095.25630829  .00000087  00000+0  20724-3 0  9990
2 47278  87.9008   5.1593 0001829  80.5487 279.5848 13.12445839255013
ONEWEB-0133             
1 47279U 20100X   26095.27311957  .00000501  00000+0  13582-2 0  9995
2 47279  87.9021   5.1236 0001894  82.0854 278.0490 13.12444859255175
ONEWEB-0134             
1 47280U 20100Y   26095.16650928 -.00000352  00000+0 -10125-2 0  9995
2 47280  87.9020   5.1419 0002065  76.2645 283.8713 13.12442477255135
ONEWEB-0135             
1 47281U 20100Z   26095.29019383  .00000235  00000+0  61756-3 0  9999
2 47281  87.9005   5.1499 0002130  78.4325 281.7043 13.12441397255176
